NORAD_CAT_ID,OBJECT_NAME,OBJECT_TYPE,EPOCH,MEAN_MOTION,ECCENTRICITY,INCLINATION,RA_OF_ASC_NODE,ARG_OF_PERICENTER,MEAN_ANOMALY,BSTAR,MEAN_MOTION_DOT,MEAN_MOTION_DDOT,TLE_LINE0,TLE_LINE1,TLE_LINE2,SEMIMAJOR_AXIS,PERIOD,APOGEE,PERIGEE,DECAYED
51123.0,STARLINK-3392,PAYLOAD,2022-05-02 06:00:00,15.31550977,0.0001819,53.2174,128.7044,34.255,14.6337,-0.022508,-0.00646846,0.0,0 STARLINK-3392,1 51123U 22005V   22122.25001157 -.00646846  00000-0 -22508-1 0  9995,2 51123  53.2174 128.7044 0001819  34.2550  14.6337 15.31550977 17465,6849.321,94.022,472.432,469.94,0.0
51123.0,STARLINK-3392,PAYLOAD,2022-05-02 14:00:01,15.31094346,0.0001491,53.2171,127.1549,47.2802,40.2145,-0.022752,-0.00644685,0.0,0 STARLINK-3392,1 51123U 22005V   22122.58334491 -.00644685  00000-0 -22752-1 0  9991,2 51123  53.2171 127.1549 0001491  47.2802  40.2145 15.31094346  3667,6850.683000000001,94.05,473.569,471.527,0.0
51123.0,STARLINK-3392,PAYLOAD,2022-05-02 22:00:01,15.30639154,0.0001751,53.2173,125.6048,38.9971,86.6206,-0.023158,-0.00646796,0.0,0 STARLINK-3392,1 51123U 22005V   22122.91668981 -.00646796  00000-0 -23158-1 0  9998,2 51123  53.2173 125.6048 0001751  38.9971  86.6206 15.30639154  3662,6852.041,94.078,475.106,472.706,0.0
51123.0,STARLINK-3392,PAYLOAD,2022-05-03 14:00:01,15.29727811,0.0001659,53.2171,122.5126,47.7634,152.2632,-0.023804,-0.00646274,0.0,0 STARLINK-3392,1 51123U 22005V   22123.58334491 -.00646274  00000-0 -23804-1 0  9997,2 51123  53.2171 122.5126 0001659  47.7634 152.2632 15.29727811 17679,6854.762,94.134,477.765,475.49,0.0
51123.0,STARLINK-3392,PAYLOAD,2022-05-03 22:00:00,15.29271768,0.0001766,53.2172,120.9656,42.8707,193.5725,-0.024138,-0.00646166,0.0,0 STARLINK-3392,1 51123U 22005V   22123.91667824 -.00646166  00000-0 -24138-1 0  9994,2 51123  53.2172 120.9656 0001766  42.8707 193.5725 15.29271768  3666,6856.125,94.162,479.201,476.779,0.0
51123.0,STARLINK-3392,PAYLOAD,2022-05-04 14:00:01,15.28336913,0.0001703,53.2166,117.8811,36.9486,270.692,-0.023467,-0.00612679,0.0,0 STARLINK-3392,1 51123U 22005V   22124.58334491 -.00612679  00000-0 -23467-1 0  9995,2 51123  53.2166 117.8811 0001703  36.9486 270.6920 15.28336913  3629,6858.920999999999,94.22,481.954,479.617,0.0
51123.0,STARLINK-3392,PAYLOAD,2022-05-04 20:00:01,15.28016862,0.0001739,53.2172,116.7219,42.5588,201.2673,-0.024939,-0.00642539,0.0,0 STARLINK-3392,1 51123U 22005V   22124.83335648 -.00642539  00000-0 -24939-1 0  9991,2 51123  53.2172 116.7219 0001739  42.5588 201.2673 15.28016862 17865,6859.878000000002,94.24,482.936,480.55,0.0
51123.0,STARLINK-3392,PAYLOAD,2022-05-04 22:00:01,15.27902463,0.0001636999999999,53.2173,116.3365,41.1628,301.3054,-0.025019,-0.00642342,0.0,0 STARLINK-3392,1 51123U 22005V   22124.91668981 -.00642342  00000-0 -25019-1 0  9991,2 51123  53.2173 116.3365 0001637  41.1628 301.3054 15.27902463  3670,6860.221,94.247,483.209,480.963,0.0
51123.0,STARLINK-3392,PAYLOAD,2022-05-05 14:00:01,15.26928679,0.000172,53.2168,113.2585,32.0791,18.2588,-0.022162,-0.00557694,0.0,0 STARLINK-3392,1 51123U 22005V   22125.58334491 -.00557694  00000-0 -22162-1 0  9992,2 51123  53.2168 113.2585 0001720  32.0791  18.2588 15.26928679  3624,6863.137,94.307,486.1830000000001,483.822,0.0
51123.0,STARLINK-3392,PAYLOAD,2022-05-05 22:00:00,15.2639634,0.0001664,53.217,111.718,31.6221,51.8851,-0.017911,-0.00445206,0.0,0 STARLINK-3392,1 51123U 22005V   22125.91667824 -.00445206  00000-0 -17911-1 0  9999,2 51123  53.2170 111.7180 0001664  31.6221  51.8851 15.26396340 18021,6864.733,94.34,487.74,485.455,0.0
51123.0,STARLINK-3392,PAYLOAD,2022-05-06 06:00:00,15.26082352,0.0002015,53.2172,110.1812,33.5816,82.4352,-0.026646,-0.0064686,0.0,0 STARLINK-3392,1 51123U 22005V   22126.25001157 -.00646860  00000-0 -26646-1 0  9992,2 51123  53.2172 110.1812 0002015  33.5816  82.4352 15.26082352 18087,6865.674,94.359,488.923,486.156,0.0
51123.0,STARLINK-3392,PAYLOAD,2022-05-06 14:00:01,15.25549054,0.0001857,53.2169,108.6452,35.0263,113.0638,-0.022274,-0.0053324,0.0,0 STARLINK-3392,1 51123U 22005V   22126.58334491 -.00533240  00000-0 -22274-1 0  9998,2 51123  53.2169 108.6452 0001857  35.0263 113.0638 15.25549054  3629,6867.274,94.392,490.414,487.864,0.0
51123.0,STARLINK-3392,PAYLOAD,2022-05-07 06:00:02,15.24713332,0.0002158,53.2172,105.5743,33.8275,176.7146,-0.027617,-0.00643521,0.0,0 STARLINK-3392,1 51123U 22005V   22127.25002315 -.00643521  00000-0 -27617-1 0  9990,2 51123  53.2172 105.5743 0002158  33.8275 176.7146 15.24713332 18230,6869.783,94.444,493.131,490.166,0.0
51123.0,STARLINK-3392,PAYLOAD,2022-05-07 14:00:01,15.24259322,0.0001665999999999,53.2173,104.0401,48.5689,192.3014,-0.028133,-0.00646385,0.0,0 STARLINK-3392,1 51123U 22005V   22127.58334491 -.00646385  00000-0 -28133-1 0  9994,2 51123  53.2173 104.0401 0001666  48.5689 192.3014 15.24259322  3664,6871.147,94.472,494.157,491.86800000000005,0.0
51123.0,STARLINK-3392,PAYLOAD,2022-05-07 22:00:00,15.23801964,0.0001872,53.2174,102.5065,38.5481,232.1674,-0.028345,-0.00642686,0.0,0 STARLINK-3392,1 51123U 22005V   22127.91667824 -.00642686  00000-0 -28345-1 0  9995,2 51123  53.2174 102.5065 0001872  38.5481 232.1674 15.23801964  3650,6872.522,94.5,495.674,493.101,0.0
51123.0,STARLINK-3392,PAYLOAD,2022-05-08 14:00:01,15.22892608,0.0001593,53.2174,99.446,44.5291,284.2312,-0.029354,-0.00647352,0.0,0 STARLINK-3392,1 51123U 22005V   22128.58334491 -.00647352  00000-0 -29354-1 0  9996,2 51123  53.2174  99.4460 0001593  44.5291 284.2312 15.22892608 18432,6875.2580000000025,94.557,498.218,496.028,0.0
51123.0,STARLINK-3392,PAYLOAD,2022-05-08 22:00:00,15.22433915,0.0001735,53.2175,97.916,38.507,318.456,-0.029453,-0.00641208,0.0,0 STARLINK-3392,1 51123U 22005V   22128.91667824 -.00641208  00000-0 -29453-1 0  9996,2 51123  53.2175  97.9160 0001735  38.5070 318.4560 15.22433915  3654,6876.639,94.585,499.697,497.311,0.0
51123.0,STARLINK-3392,PAYLOAD,2022-05-09 14:00:01,15.21524453,0.0001609,53.2174,94.8616,41.9342,9.8513,-0.030473,-0.00645449,0.0,0 STARLINK-3392,1 51123U 22005V   22129.58335648 -.00645449  00000-0 -30473-1 0  9991,2 51123  53.2174  94.8616 0001609  41.9342   9.8513 15.21524453 18589,6879.379,94.642,502.351,500.137,0.0
51123.0,STARLINK-3392,PAYLOAD,2022-05-09 22:00:00,15.21067082,0.0001846,53.2174,93.3349,35.8503,42.4312,-0.030705,-0.00641935,0.0,0 STARLINK-3392,1 51123U 22005V   22129.91667824 -.00641935  00000-0 -30705-1 0  9996,2 51123  53.2174  93.3349 0001846  35.8503  42.4312 15.21067082  3641,6880.7580000000025,94.67,503.893,501.352,0.0
51123.0,STARLINK-3392,PAYLOAD,2022-05-10 14:00:01,15.20156877,0.0001803,53.2174,90.2869,39.4623,90.2931,-0.031666,-0.00644366,0.0,0 STARLINK-3392,1 51123U 22005V   22130.58334491 -.00644366  00000-0 -31666-1 0  9990,2 51123  53.2174  90.2869 0001803  39.4623  90.2931 15.20156877  3659,6883.504,94.727,506.61,504.128,0.0
51123.0,STARLINK-3392,PAYLOAD,2022-05-10 18:00:00,15.19926294,0.0001696,53.2173,89.5246,39.9425,282.3407,-0.031641,-0.00639849,0.0,0 STARLINK-3392,1 51123U 22005V   22130.75001157 -.00639849  00000-0 -31641-1 0  9992,2 51123  53.2173  89.5246 0001696  39.9425 282.3407 15.19926294 18769,6884.2,94.741,507.233,504.898,0.0
51123.0,STARLINK-3392,PAYLOAD,2022-05-11 22:00:00,15.18333543,0.0001963,53.2174,84.2017,39.2226,186.9108,-0.033316,-0.00642965,0.0,0 STARLINK-3392,1 51123U 22005V   22131.91667824 -.00642965  00000-0 -33316-1 0  9994,2 51123  53.2174  84.2017 0001963  39.2226 186.9108 15.18333543 18942,6889.014,94.841,512.231,509.526,0.0
51123.0,STARLINK-3392,PAYLOAD,2022-05-12 14:00:01,15.17423677,0.0001939,53.2174,81.1659,36.2801,234.7561,-0.03439,-0.00653135,0.0,0 STARLINK-3392,1 51123U 22005V   22132.58334491 -.00653135  00000-0 -34390-1 0  9993,2 51123  53.2174  81.1659 0001939  36.2801 234.7561 15.17423677  1303,6891.767,94.898,514.969,512.2959999999998,0.0
51123.0,STARLINK-3392,PAYLOAD,2022-05-12 22:00:00,15.16966619,0.0001964,53.2175,79.6493,35.1983,257.4686,-0.034677,-0.00650169,0.0,0 STARLINK-3392,1 51123U 22005V   22132.91667824 -.00650169  00000-0 -34677-1 0  9991,2 51123  53.2175  79.6493 0001964  35.1983 257.4686 15.16966619  1306,6893.151999999999,94.926,516.37,513.663,0.0
51123.0,STARLINK-3392,PAYLOAD,2022-05-13 06:00:00,15.165095,0.0001828,53.2174,78.1357,38.9817,274.7675,-0.035024,-0.00648222,0.0,0 STARLINK-3392,1 51123U 22005V   22133.25001157 -.00648222  00000-0 -35024-1 0  9994,2 51123  53.2174  78.1357 0001828  38.9817 274.7675 15.16509500 19147,6894.5369999999975,94.955,517.6619999999998,515.141,0.0
51123.0,STARLINK-3392,PAYLOAD,2022-05-13 14:00:01,15.16055878,0.000168,53.2174,76.6198,41.7268,292.5578,-0.035723,-0.00652339,0.0,0 STARLINK-3392,1 51123U 22005V   22133.58334491 -.00652339  00000-0 -35723-1 0  9990,2 51123  53.2174  76.6198 0001680  41.7268 292.5578 15.16055878  1304,6895.9119999999975,94.983,518.935,516.618,0.0
51123.0,STARLINK-3392,PAYLOAD,2022-05-13 22:00:00,15.15599832,0.0001686,53.2176,75.1066,42.0793,312.1927,-0.036114,-0.00651026,0.0,0 STARLINK-3392,1 51123U 22005V   22133.91667824 -.00651026  00000-0 -36114-1 0  9993,2 51123  53.2176  75.1066 0001686  42.0793 312.1927 15.15599832  1306,6897.295,95.012,520.323,517.997,0.0
51123.0,STARLINK-3392,PAYLOAD,2022-05-14 14:00:01,15.14687513,0.0001735,53.2174,72.0833,37.2031,355.4017,-0.037029,-0.00650449,0.0,0 STARLINK-3392,1 51123U 22005V   22134.58334491 -.00650449  00000-0 -37029-1 0  9992,2 51123  53.2174  72.0833 0001735  37.2031 355.4017 15.14687513 19344,6900.064,95.069,523.127,520.732,0.0
51123.0,STARLINK-3392,PAYLOAD,2022-05-14 22:00:00,15.14232783,0.0001858,53.2175,70.5735,35.2151,15.7337,-0.037582,-0.00651639,0.0,0 STARLINK-3392,1 51123U 22005V   22134.91667824 -.00651639  00000-0 -37582-1 0  9994,2 51123  53.2175  70.5735 0001858  35.2151  15.7337 15.14232783  1309,6901.446,95.098,524.5930000000002,522.028,0.0
